CORAL                   
1 67684U 98067YA  26095.72744007  .00105757  00000+0  12984-2 0  9994
2 67684  51.6287 296.2079 0013728 276.4839  83.4591 15.59362518  9001
GXIBA-1                 
1 67685U 98067YB  26095.80589156  .00053148  00000+0  78016-3 0  9991
2 67685  51.6302 296.7324 0012597 283.2994  76.6592 15.54892116  9001
UITMSAT-2               
1 67686U 98067YC  26095.85007678  .00060650  00000+0  85196-3 0  9994
2 67686  51.6301 296.2798 0009711 258.0016 101.9887 15.56068312  9015
HMU-SAT2                
1 67687U 98067YD  26095.81217735  .00052169  00000+0  77513-3 0  9998
2 67687  51.6312 296.7780 0009202 261.2680  98.7269 15.54611273  8926
LEOPARD                 
1 67688U 98067YE  26095.85923402  .00054045  00000+0  77581-3 0  9998
2 67688  51.6303 296.3413 0009334 258.5898 101.4045 15.55534164  8931
CREW DRAGON 12          
1 67796U 26031A   26095.81141530  .00008309  00000+0  15990-3 0  9998
2 67796  51.6329 298.2672 0006355 276.3215  83.7049 15.48791307560528
PROGRESS-MS 33          
1 68319U 26058A   26095.81141530  .00008309  00000+0  15990-3 0  9999
2 68319  51.6329 298.2672 0006355 276.3215  83.7049 15.48791307  2037
